NORAD_CAT_ID,OBJECT_NAME,OBJECT_TYPE,EPOCH,MEAN_MOTION,ECCENTRICITY,INCLINATION,RA_OF_ASC_NODE,ARG_OF_PERICENTER,MEAN_ANOMALY,BSTAR,MEAN_MOTION_DOT,MEAN_MOTION_DDOT,TLE_LINE0,TLE_LINE1,TLE_LINE2,SEMIMAJOR_AXIS,PERIOD,APOGEE,PERIGEE,DECAYED
54181.0,STARLINK-5227,PAYLOAD,2023-12-25 02:19:34,15.08837247,0.0001657,53.2193,20.3413,96.1285,263.9896,4.2411e-05,3.87e-06,0.0,0 STARLINK-5227,1 54181U 22141AA  23359.09693016  .00000387  00000-0  42411-4 0  9999,2 54181  53.2193  20.3413 0001657  96.1285 263.9896 15.08837247 64476,6917.889,95.438,540.9,538.608,0.0
54181.0,STARLINK-5227,PAYLOAD,2023-12-25 11:51:53,15.08841274,0.0001676,53.2191,18.5582,105.187,254.9308,3.7773e-05,3.13e-06,0.0,0 STARLINK-5227,1 54181U 22141AA  23359.49436777  .00000313  00000-0  37773-4 0  9996,2 54181  53.2191  18.5582 0001676 105.1870 254.9308 15.08841274 64307,6917.876,95.437,540.901,538.582,0.0
54181.0,STARLINK-5227,PAYLOAD,2023-12-26 00:34:59,15.08829439,0.0002148,53.2188,16.1754,128.9617,231.1566,-3.2261e-05,-8.02e-06,0.0,0 STARLINK-5227,1 54181U 22141AA  23360.02429977 -.00000802  00000-0 -32261-4 0  9993,2 54181  53.2188  16.1754 0002148 128.9617 231.1566 15.08829439 64611,6917.913,95.438,541.264,538.292,0.0
54181.0,STARLINK-5227,PAYLOAD,2023-12-26 10:07:17,15.08843143,0.0001615,53.219,14.3985,99.7471,260.3704,3.8671e-07,-2.82e-06,0.0,0 STARLINK-5227,1 54181U 22141AA  23360.42173153 -.00000282  00000-0  38671-6 0  9993,2 54181  53.2190  14.3985 0001615  99.7471 260.3704 15.08843143 64673,6917.871,95.437,540.853,538.619,0.0
54181.0,STARLINK-5227,PAYLOAD,2023-12-27 00:25:46,15.08835344,0.0001624,53.2189,11.7206,102.6261,257.4913,8.4545e-06,-1.53e-06,0.0,0 STARLINK-5227,1 54181U 22141AA  23361.01789792 -.00000153  00000-0  84545-5 0  9998,2 54181  53.2189  11.7206 0001624 102.6261 257.4913 15.08835344 64762,6917.895,95.438,540.883,538.636,0.0
54181.0,STARLINK-5227,PAYLOAD,2023-12-27 09:58:04,15.08844461,0.0001553,53.2185,9.9371,87.3126,272.8044,8.4034e-05,1.05e-05,0.0,0 STARLINK-5227,1 54181U 22141AA  23361.41533106  .00001050  00000-0  84034-4 0  9996,2 54181  53.2185   9.9371 0001553  87.3126 272.8044 15.08844461 64823,6917.867,95.437,540.806,538.657,0.0
54181.0,STARLINK-5227,PAYLOAD,2023-12-28 00:16:33,15.08829126,0.000121,53.2184,7.2611,88.5505,271.5625,0.00011835,1.596e-05,0.0,0 STARLINK-5227,1 54181U 22141AA  23362.01150141  .00001596  00000-0  11835-3 0  9990,2 54181  53.2184   7.2611 0001210  88.5505 271.5625 15.08829126 64916,6917.914,95.438,540.616,538.942,0.0
54181.0,STARLINK-5227,PAYLOAD,2023-12-28 08:13:29,15.08835392,0.0001549,53.2192,5.775,91.3115,268.8054,3.1132e-05,2.07e-06,0.0,0 STARLINK-5227,1 54181U 22141AA  23362.34270251  .00000207  00000-0  31132-4 0  9992,2 54181  53.2192   5.7750 0001549  91.3115 268.8054 15.08835392 64733,6917.894,95.438,540.831,538.688,0.0
54181.0,STARLINK-5227,PAYLOAD,2023-12-29 09:39:38,15.08855688,0.0001484,53.2185,1.0149,95.2421,264.8741,0.00012724,1.738e-05,0.0,0 STARLINK-5227,1 54181U 22141AA  23363.40252612  .00001738  00000-0  12724-3 0  9996,2 54181  53.2185   1.0149 0001484  95.2421 264.8741 15.08855688 65120,6917.832,95.437,540.724,538.671,0.0
54181.0,STARLINK-5227,PAYLOAD,2023-12-30 03:08:53,15.08843563,0.0001514,53.2178,357.7412,112.7031,247.4121,5.2149e-05,5.42e-06,0.0,0 STARLINK-5227,1 54181U 22141AA  23364.13117294  .00000542  00000-0  52149-4 0  9991,2 54181  53.2178 357.7412 0001514 112.7031 247.4121 15.08843563 65232,6917.869,95.437,540.782,538.687,0.0
54181.0,STARLINK-5227,PAYLOAD,2023-12-30 06:19:39,15.08844254,0.0001882,53.2197,357.1446,128.714,231.402,3.0218e-05,1.93e-06,0.0,0 STARLINK-5227,1 54181U 22141AA  23364.26365225  .00000193  00000-0  30218-4 0  9999,2 54181  53.2197 357.1446 0001882 128.7140 231.4020 15.08844254 65026,6917.867,95.437,541.034,538.43,0.0
54181.0,STARLINK-5227,PAYLOAD,2023-12-31 02:59:40,15.0883997,0.0001968,53.2196,353.28,126.0866,234.0309,-2.8138e-05,-7.36e-06,0.0,0 STARLINK-5227,1 54181U 22141AA  23365.12477559 -.00000736  00000-0 -28138-4 0  9992,2 54181  53.2196 353.2800 0001968 126.0866 234.0309 15.08839970 65384,6917.88,95.438,541.107,538.384,0.0
54181.0,STARLINK-5227,PAYLOAD,2023-12-31 09:21:12,15.08849452,0.0001601,53.2187,352.0935,105.9133,254.2035,-5.1989e-05,-1.116e-05,0.0,0 STARLINK-5227,1 54181U 22141AA  23365.38973171 -.00001116  00000-0 -51989-4 0  9994,2 54181  53.2187 352.0935 0001601 105.9133 254.2035 15.08849452 65428,6917.851,95.437,540.824,538.609,0.0
54181.0,STARLINK-5227,PAYLOAD,2024-01-01 02:50:27,15.0883817,0.0001553,53.218,348.8203,108.8154,251.3006,-2.8441e-05,-7.41e-06,0.0,0 STARLINK-5227,1 54181U 22141AA  24001.11837831 -.00000741  00000-0 -28441-4 0  9995,2 54181  53.2180 348.8203 0001553 108.8154 251.3006 15.08838170 65536,6917.886,95.438,540.825,538.677,0.0
54181.0,STARLINK-5227,PAYLOAD,2024-01-01 04:25:50,15.08841144,0.0001425,53.2177,348.5224,103.5087,256.6064,-8.4197e-06,-4.22e-06,0.0,0 STARLINK-5227,1 54181U 22141AA  24001.18461551 -.00000422  00000-0 -84197-5 0  9991,2 54181  53.2177 348.5224 0001425 103.5087 256.6064 15.08841144 65310,6917.877,95.437,540.728,538.756,0.0
54181.0,STARLINK-5227,PAYLOAD,2024-01-01 21:55:05,15.08840146,0.0001577,53.2178,345.2544,105.0068,255.1099,-8.9181e-06,-4.3e-06,0.0,0 STARLINK-5227,1 54181U 22141AA  24001.91325968 -.00000430  00000-0 -89181-5 0  9990,2 54181  53.2178 345.2544 0001577 105.0068 255.1099 15.08840146 65429,6917.88,95.438,540.836,538.654,0.0
54181.0,STARLINK-5227,PAYLOAD,2024-01-02 04:16:37,15.0884198,0.0001447,53.2178,344.0669,95.4635,264.6523,2.4858e-05,1.08e-06,0.0,0 STARLINK-5227,1 54181U 22141AA  24002.17821751  .00000108  00000-0  24858-4 0  9999,2 54181  53.2178 344.0669 0001447  95.4635 264.6523 15.08841980 65695,6917.874,95.437,540.74,538.738,0.0
54181.0,STARLINK-5227,PAYLOAD,2024-01-02 05:52:00,15.08845818,0.0001565,53.2182,343.7694,106.2855,253.831,2.2535e-05,7.1e-07,0.0,0 STARLINK-5227,1 54181U 22141AA  24002.24445509  .00000071  00000-0  22535-4 0  9999,2 54181  53.2182 343.7694 0001565 106.2855 253.8310 15.08845818 65474,6917.863,95.437,540.81,538.645,0.0
54181.0,STARLINK-5227,PAYLOAD,2024-01-03 04:07:25,15.08836824,0.000175,53.2189,339.6079,109.081,251.0372,3.7245e-05,3.05e-06,0.0,0 STARLINK-5227,1 54181U 22141AA  24003.17182179  .00000305  00000-0  37245-4 0  9997,2 54181  53.2189 339.6079 0001750 109.0810 251.0372 15.08836824 65846,6917.89,95.438,540.966,538.544,0.0
54181.0,STARLINK-5227,PAYLOAD,2024-01-03 07:18:11,15.08838038,0.0001537,53.2186,339.0108,91.1999,268.9169,4.9525e-05,5e-06,0.0,0 STARLINK-5227,1 54181U 22141AA  24003.30430175  .00000500  00000-0  49525-4 0  9995,2 54181  53.2186 339.0108 0001537  91.1999 268.9169 15.08838038 65639,6917.886,95.438,540.815,538.688,0.0
54181.0,STARLINK-5227,PAYLOAD,2024-01-04 07:08:58,15.08844084,0.0001552,53.2189,334.547,95.1864,264.9305,0.00010619,1.403e-05,0.0,0 STARLINK-5227,1 54181U 22141AA  24004.29789780  .00001403  00000-0  10619-3 0  9997,2 54181  53.2189 334.5470 0001552  95.1864 264.9305 15.08844084 66015,6917.868,95.437,540.807,538.659,0.0
54181.0,STARLINK-5227,PAYLOAD,2024-01-05 03:48:59,15.08835699,0.0001675,53.2191,330.6798,79.7191,280.399,0.00018373,2.637e-05,0.0,0 STARLINK-5227,1 54181U 22141AA  24005.15901902  .00002637  00000-0  18373-3 0  9990,2 54181  53.2191 330.6798 0001675  79.7191 280.3990 15.08835699 66143,6917.894,95.438,540.917,538.6,0.0
54181.0,STARLINK-5227,PAYLOAD,2024-01-05 06:59:45,15.08847412,0.0001643,53.219,330.0876,96.5692,263.5487,9.8561e-05,1.281e-05,0.0,0 STARLINK-5227,1 54181U 22141AA  24005.29149407  .00001281  00000-0  98561-4 0  9991,2 54181  53.2190 330.0876 0001643  96.5692 263.5487 15.08847412 66163,6917.858,95.437,540.859,538.586,0.0
54181.0,STARLINK-5227,PAYLOAD,2024-01-06 03:39:46,15.08843774,0.0001522,53.2173,326.2229,104.4437,255.6725,4.1526e-06,-2.22e-06,0.0,0 STARLINK-5227,1 54181U 22141AA  24006.15261829 -.00000222  00000-0  41526-5 0  9995,2 54181  53.2173 326.2229 0001522 104.4437 255.6725 15.08843774 66293,6917.869,95.437,540.787,538.681,0.0
54181.0,STARLINK-5227,PAYLOAD,2024-01-06 06:50:32,15.08845011,0.000152,53.2178,325.628,107.3912,252.7247,8.971e-06,-1.45e-06,0.0,0 STARLINK-5227,1 54181U 22141AA  24006.28509691 -.00000145  00000-0  89710-5 0  9992,2 54181  53.2178 325.6280 0001520 107.3912 252.7247 15.08845011 66086,6917.865,95.437,540.782,538.679,0.0
54181.0,STARLINK-5227,PAYLOAD,2024-01-07 03:30:33,15.08838143,0.0001579,53.2184,321.7602,98.576,261.5411,-3.8292e-05,-8.97e-06,0.0,0 STARLINK-5227,1 54181U 22141AA  24007.14622427 -.00000897  00000-0 -38292-4 0  9994,2 54181  53.2184 321.7602 0001579  98.5760 261.5411 15.08838143 66443,6917.886,95.438,540.843,538.659,0.0
54181.0,STARLINK-5227,PAYLOAD,2024-01-07 06:41:19,15.08839486,0.00016,53.2185,321.1659,100.7515,259.3658,-3.4368e-05,-8.35e-06,0.0,0 STARLINK-5227,1 54181U 22141AA  24007.27870356 -.00000835  00000-0 -34368-4 0  9996,2 54181  53.2185 321.1659 0001600 100.7515 259.3658 15.08839486 66235,6917.882,95.438,540.854,538.64,0.0
54181.0,STARLINK-5227,PAYLOAD,2024-01-08 03:21:20,15.08843357,0.0001525,53.2181,317.3006,98.7403,261.3762,7.5256e-05,9.1e-06,0.0,0 STARLINK-5227,1 54181U 22141AA  24008.13981935  .00000910  00000-0  75256-4 0  9991,2 54181  53.2181 317.3006 0001525  98.7403 261.3762 15.08843357 66592,6917.87,95.437,540.79,538.68,0.0
54181.0,STARLINK-5227,PAYLOAD,2024-01-09 03:12:07,15.08841691,0.0001586,53.2171,312.8418,110.2998,249.8164,9.186e-06,-1.42e-06,0.0,0 STARLINK-5227,1 54181U 22141AA  24009.13342504 -.00000142  00000-0  91860-5 0  9993,2 54181  53.2171 312.8418 0001586 110.2998 249.8164 15.08841691 66747,6917.875,95.437,540.837,538.643,0.0
54181.0,STARLINK-5227,PAYLOAD,2024-01-09 20:41:22,15.08842797,0.0001447,53.2168,309.5731,98.8003,261.3153,-1.1328e-05,-4.68e-06,0.0,0 STARLINK-5227,1 54181U 22141AA  24009.86206794 -.00000468  00000-0 -11328-4 0  9995,2 54181  53.2168 309.5731 0001447  98.8003 261.3153 15.08842797 66620,6917.872,95.437,540.738,538.736,0.0
